{"type": "FeatureCollection", "features": [{"type": "Feature", "properties": {"norad_id": 24946, "name": "IRIDIUM 33", "group": "iridium-33-debris", "lat": -10.709342081043049, "lon": 69.42486854130921, "alt_km": 782.4211784845311, "timestamp": "2025-12-08T05:48:09.418376+00:00", "meta": {"OBJECT_NAME": "IRIDIUM 33", "OBJECT_ID": "1997-051C", "EPOCH": "2025-12-07T23:09:30.826368", "MEAN_MOTION": 14.35031792, "ECCENTRICITY": 0.00065204, "INCLINATION": 86.387, "RA_OF_ASC_NODE": 70.2257, "ARG_OF_PERICENTER": 218.2008, "MEAN_ANOMALY": 141.8727, "EPHEMERIS_TYPE": 0, "CLASSIFICATION_TYPE": "U", "NORAD_CAT_ID": 24946, "ELEMENT_SET_NO": 999, "REV_AT_EPOCH": 47766, "BSTAR": 0.00020031832, "MEAN_MOTION_DOT": 5.9e-06, "MEAN_MOTION_DDOT": 0}, "tle": {"line1": "1 24946U 97051C   25341.96494012  .00000590  00000+0  20032-3 0  9990", "line2": "2 24946  86.3870  70.2257 0006520 218.2008 141.8727 14.35031792477661"}}, "geometry": {"type": "Point", "coordinates": [69.42486854130921, -10.709342081043049]}}, {"type": "Feature", "properties": {"norad_id": 33773, "name": "IRIDIUM 33 DEB", "group": "iridium-33-debris", "lat": 6.3242468439085915, "lon": -117.90401392274111, "alt_km": 741.6818276303848, "timestamp": "2025-12-08T05:48:09.418416+00:00", "meta": {"OBJECT_NAME": "IRIDIUM 33 DEB", "OBJECT_ID": "1997-051L", "EPOCH": "2025-12-07T17:21:12.573216", "MEAN_MOTION": 14.43241483, "ECCENTRICITY": 0.00120237, "INCLINATION": 86.4015, "RA_OF_ASC_NODE": 62.7153, "ARG_OF_PERICENTER": 161.443, "MEAN_ANOMALY": 198.7212, "EPHEMERIS_TYPE": 0, "CLASSIFICATION_TYPE": "U", "NORAD_CAT_ID": 33773, "ELEMENT_SET_NO": 999, "REV_AT_EPOCH": 88275, "BSTAR": 0.00062122502, "MEAN_MOTION_DOT": 2.11e-05, "MEAN_MOTION_DDOT": 0}, "tle": {"line1": "1 33773U 97051L   25341.72306219  .00002110  00000+0  62123-3 0  9990", "line2": "2 33773  86.4015  62.7153 0012023 161.4430 198.7212 14.43241483882754"}}, "geometry": {"type": "Point", "coordinates": [-117.90401392274111, 6.3242468439085915]}}, {"type": "Feature", "properties": {"norad_id": 33775, "name": "IRIDIUM 33 DEB", "group": "iridium-33-debris", "lat": -73.57382618643459, "lon": 39.01844334951317, "alt_km": 765.633645543654, "timestamp": "2025-12-08T05:48:09.418431+00:00", "meta": {"OBJECT_NAME": "IRIDIUM 33 DEB", "OBJECT_ID": "1997-051N", "EPOCH": "2025-12-07T22:38:03.370848", "MEAN_MOTION": 14.41452411, "ECCENTRICITY": 0.00137836, "INCLINATION": 86.3641, "RA_OF_ASC_NODE": 51.6013, "ARG_OF_PERICENTER": 169.5505, "MEAN_ANOMALY": 7.4355, "EPHEMERIS_TYPE": 0, "CLASSIFICATION_TYPE": "U", "NORAD_CAT_ID": 33775, "ELEMENT_SET_NO": 999, "REV_AT_EPOCH": 88071, "BSTAR": 0.00051363714, "MEAN_MOTION_DOT": 1.687e-05, "MEAN_MOTION_DDOT": 0}, "tle": {"line1": "1 33775U 97051N   25341.94309457  .00001687  00000+0  51364-3 0  9996", "line2": "2 33775  86.3641  51.6013 0013783 169.5505   7.4355 14.41452411880719"}}, "geometry": {"type": "Point", "coordinates": [39.01844334951317, -73.57382618643459]}}, {"type": "Feature", "properties": {"norad_id": 33776, "name": "IRIDIUM 33 DEB", "group": "iridium-33-debris", "lat": -27.94436506714241, "lon": -95.42371563481495, "alt_km": 760.4250244845771, "timestamp": "2025-12-08T05:48:09.418445+00:00", "meta": {"OBJECT_NAME": "IRIDIUM 33 DEB", "OBJECT_ID": "1997-051P", "EPOCH": "2025-12-07T19:21:28.874016", "MEAN_MOTION": 14.38221316, "ECCENTRICITY": 0.00137825, "INCLINATION": 86.4037, "RA_OF_ASC_NODE": 82.8472, "ARG_OF_PERICENTER": 207.1216, "MEAN_ANOMALY": 268.948, "EPHEMERIS_TYPE": 0, "CLASSIFICATION_TYPE": "U", "NORAD_CAT_ID": 33776, "ELEMENT_SET_NO": 999, "REV_AT_EPOCH": 88011, "BSTAR": 0.00060401698, "MEAN_MOTION_DOT": 1.855e-05, "MEAN_MOTION_DDOT": 0}, "tle": {"line1": "1 33776U 97051P   25341.80658419  .00001855  00000+0  60402-3 0  9997", "line2": "2 33776  86.4037  82.8472 0013782 207.1216 268.9480 14.38221316880113"}}, "geometry": {"type": "Point", "coordinates": [-95.42371563481495, -27.94436506714241]}}, {"type": "Feature", "properties": {"norad_id": 33777, "name": "IRIDIUM 33 DEB", "group": "iridium-33-debris", "lat": 74.46949832464045, "lon": 50.333432671691405, "alt_km": 704.0084127837481, "timestamp": "2025-12-08T05:48:09.418458+00:00", "meta": {"OBJECT_NAME": "IRIDIUM 33 DEB", "OBJECT_ID": "1997-051Q", "EPOCH": "2025-12-07T21:12:36.232416", "MEAN_MOTION": 14.55558752, "ECCENTRICITY": 0.00051039, "INCLINATION": 86.3785, "RA_OF_ASC_NODE": 37.3156, "ARG_OF_PERICENTER": 272.0634, "MEAN_ANOMALY": 87.9989, "EPHEMERIS_TYPE": 0, "CLASSIFICATION_TYPE": "U", "NORAD_CAT_ID": 33777, "ELEMENT_SET_NO": 999, "REV_AT_EPOCH": 88463, "BSTAR": 0.0012244585, "MEAN_MOTION_DOT": 5.356e-05, "MEAN_MOTION_DDOT": 0}, "tle": {"line1": "1 33777U 97051Q   25341.88375269  .00005356  00000+0  12245-2 0  9996", "line2": "2 33777  86.3785  37.3156 0005103 272.0634  87.9989 14.55558752884630"}}, "geometry": {"type": "Point", "coordinates": [50.333432671691405, 74.46949832464045]}}, {"type": "Feature", "properties": {"norad_id": 33850, "name": "IRIDIUM 33 DEB", "group": "iridium-33-debris", "lat": -75.56209685441729, "lon": -133.4985936336237, "alt_km": 757.5680301339517, "timestamp": "2025-12-08T05:48:09.418470+00:00", "meta": {"OBJECT_NAME": "IRIDIUM 33 DEB", "OBJECT_ID": "1997-051T", "EPOCH": "2025-12-07T22:30:46.056384", "MEAN_MOTION": 14.42131597, "ECCENTRICITY": 0.00117503, "INCLINATION": 86.3419, "RA_OF_ASC_NODE": 32.2443, "ARG_OF_PERICENTER": 175.9292, "MEAN_ANOMALY": 304.0004, "EPHEMERIS_TYPE": 0, "CLASSIFICATION_TYPE": "U", "NORAD_CAT_ID": 33850, "ELEMENT_SET_NO": 999, "REV_AT_EPOCH": 88083, "BSTAR": 0.00051754302, "MEAN_MOTION_DOT": 1.722e-05, "MEAN_MOTION_DDOT": 0}, "tle": {"line1": "1 33850U 97051T   25341.93803306  .00001722  00000+0  51754-3 0  9994", "line2": "2 33850  86.3419  32.2443 0011750 175.9292 304.0004 14.42131597880834"}}, "geometry": {"type": "Point", "coordinates": [-133.4985936336237, -75.56209685441729]}}, {"type": "Feature", "properties": {"norad_id": 33853, "name": "IRIDIUM 33 DEB", "group": "iridium-33-debris", "lat": -75.47296266828114, "lon": -172.54821139681792, "alt_km": 754.9454429219732, "timestamp": "2025-12-08T05:48:09.418483+00:00", "meta": {"OBJECT_NAME": "IRIDIUM 33 DEB", "OBJECT_ID": "1997-051W", "EPOCH": "2025-12-07T08:17:07.255968", "MEAN_MOTION": 13.99011788, "ECCENTRICITY": 0.0206843, "INCLINATION": 85.9996, "RA_OF_ASC_NODE": 352.177, "ARG_OF_PERICENTER": 252.5093, "MEAN_ANOMALY": 170.527, "EPHEMERIS_TYPE": 0, "CLASSIFICATION_TYPE": "U", "NORAD_CAT_ID": 33853, "ELEMENT_SET_NO": 999, "REV_AT_EPOCH": 85270, "BSTAR": 0.0032855216, "MEAN_MOTION_DOT": 5.719e-05, "MEAN_MOTION_DDOT": 0}, "tle": {"line1": "1 33853U 97051W   25341.34522287  .00005719  00000+0  32855-2 0  9998", "line2": "2 33853  85.9996 352.1770 0206843 252.5093 170.5270 13.99011788852705"}}, "geometry": {"type": "Point", "coordinates": [-172.54821139681792, -75.47296266828114]}}, {"type": "Feature", "properties": {"norad_id": 33860, "name": "IRIDIUM 33 DEB", "group": "iridium-33-debris", "lat": 37.19164328499254, "lon": -153.5215548589244, "alt_km": 670.8252866431749, "timestamp": "2025-12-08T05:48:09.418495+00:00", "meta": {"OBJECT_NAME": "IRIDIUM 33 DEB", "OBJECT_ID": "1997-051AD", "EPOCH": "2025-12-07T21:48:56.589984", "MEAN_MOTION": 14.67272468, "ECCENTRICITY": 0.00080796, "INCLINATION": 86.3838, "RA_OF_ASC_NODE": 29.3762, "ARG_OF_PERICENTER": 14.2776, "MEAN_ANOMALY": 171.5804, "EPHEMERIS_TYPE": 0, "CLASSIFICATION_TYPE": "U", "NORAD_CAT_ID": 33860, "ELEMENT_SET_NO": 999, "REV_AT_EPOCH": 88651, "BSTAR": 0.001579161, "MEAN_MOTION_DOT": 8.93e-05, "MEAN_MOTION_DDOT": 0}, "tle": {"line1": "1 33860U 97051AD  25341.90898831  .00008930  00000+0  15792-2 0  9998", "line2": "2 33860  86.3838  29.3762 0008079  14.2776 171.5804 14.67272468886519"}}, "geometry": {"type": "Point", "coordinates": [-153.5215548589244, 37.19164328499254]}}, {"type": "Feature", "properties": {"norad_id": 33862, "name": "IRIDIUM 33 DEB", "group": "iridium-33-debris", "lat": 35.31769582677668, "lon": -143.03661180841922, "alt_km": 641.9332083516219, "timestamp": "2025-12-08T05:48:09.418506+00:00", "meta": {"OBJECT_NAME": "IRIDIUM 33 DEB", "OBJECT_ID": "1997-051AF", "EPOCH": "2025-12-07T21:45:50.543136", "MEAN_MOTION": 14.69356712, "ECCENTRICITY": 0.00538028, "INCLINATION": 86.4089, "RA_OF_ASC_NODE": 39.6612, "ARG_OF_PERICENTER": 85.3176, "MEAN_ANOMALY": 88.0788, "EPHEMERIS_TYPE": 0, "CLASSIFICATION_TYPE": "U", "NORAD_CAT_ID": 33862, "ELEMENT_SET_NO": 999, "REV_AT_EPOCH": 88752, "BSTAR": 0.0017531602, "MEAN_MOTION_DOT": 0.0001062, "MEAN_MOTION_DDOT": 0}, "tle": {"line1": "1 33862U 97051AF  25341.90683499  .00010620  00000+0  17532-2 0  9995", "line2": "2 33862  86.4089  39.6612 0053802  85.3176  88.0788 14.69356712887527"}}, "geometry": {"type": "Point", "coordinates": [-143.03661180841922, 35.31769582677668]}}, {"type": "Feature", "properties": {"norad_id": 33866, "name": "IRIDIUM 33 DEB", "group": "iridium-33-debris", "lat": -23.808770810367015, "lon": -83.42538568298703, "alt_km": 740.6239770578159, "timestamp": "2025-12-08T05:48:09.418518+00:00", "meta": {"OBJECT_NAME": "IRIDIUM 33 DEB", "OBJECT_ID": "1997-051AK", "EPOCH": "2025-12-07T19:27:58.017024", "MEAN_MOTION": 14.25249491, "ECCENTRICITY": 0.01140775, "INCLINATION": 86.3005, "RA_OF_ASC_NODE": 95.1209, "ARG_OF_PERICENTER": 177.1073, "MEAN_ANOMALY": 337.5988, "EPHEMERIS_TYPE": 0, "CLASSIFICATION_TYPE": "U", "NORAD_CAT_ID": 33866, "ELEMENT_SET_NO": 999, "REV_AT_EPOCH": 86740, "BSTAR": 0.0012512167, "MEAN_MOTION_DOT": 3.167e-05, "MEAN_MOTION_DDOT": 0}, "tle": {"line1": "1 33866U 97051AK  25341.81108816  .00003167  00000+0  12512-2 0  9995", "line2": "2 33866  86.3005  95.1209 0114077 177.1073 337.5988 14.25249491867401"}}, "geometry": {"type": "Point", "coordinates": [-83.42538568298703, -23.808770810367015]}}]}